NORAD_CAT_ID,OBJECT_NAME,OBJECT_TYPE,EPOCH,MEAN_MOTION,ECCENTRICITY,INCLINATION,RA_OF_ASC_NODE,ARG_OF_PERICENTER,MEAN_ANOMALY,BSTAR,MEAN_MOTION_DOT,MEAN_MOTION_DDOT,TLE_LINE0,TLE_LINE1,TLE_LINE2,SEMIMAJOR_AXIS,PERIOD,APOGEE,PERIGEE,DECAYED
52870.0,STARLINK-4195,PAYLOAD,2023-09-18 22:22:01,15.08851247,0.0001027,53.216,116.7587,87.5119,272.5991,0.00035418,5.355e-05,0.0,0 STARLINK-4195,1 52870U 22062AS  23261.93196623  .00005355  00000-0  35418-3 0  9999,2 52870  53.2160 116.7587 0001027  87.5119 272.5991 15.08851247 70134,6917.846,95.437,540.421,539.001,0.0
52870.0,STARLINK-4195,PAYLOAD,2023-09-19 19:02:02,15.08850262,0.0001148,53.2159,112.8935,89.3313,270.7811,0.00020941,3.047e-05,0.0,0 STARLINK-4195,1 52870U 22062AS  23262.79308377  .00003047  00000-0  20941-3 0  9996,2 52870  53.2159 112.8935 0001148  89.3313 270.7811 15.08850262 70267,6917.849,95.437,540.508,538.92,0.0
52870.0,STARLINK-4195,PAYLOAD,2023-09-19 23:48:11,15.08853453,0.0001208,53.2164,112.0001,95.9224,264.1906,0.00024301,3.583e-05,0.0,0 STARLINK-4195,1 52870U 22062AS  23262.99180120  .00003583  00000-0  24301-3 0  9991,2 52870  53.2164 112.0001 0001208  95.9224 264.1906 15.08853453 69805,6917.839,95.437,540.54,538.869,0.0
52870.0,STARLINK-4195,PAYLOAD,2023-09-20 18:52:50,15.08823351,0.000181,53.216,108.427,127.1997,232.916,0.00027088,4.024e-05,0.0,0 STARLINK-4195,1 52870U 22062AS  23263.78669679  .00004024  00000-0  27088-3 0  9996,2 52870  53.2160 108.4270 0001810 127.1997 232.9160 15.08823351 70410,6917.931,95.439,541.048,538.544,0.0
52870.0,STARLINK-4195,PAYLOAD,2023-09-20 20:28:13,15.08828599,0.0001154,53.2162,108.1352,87.9931,272.1193,-0.00014019,-2.518e-05,0.0,0 STARLINK-4195,1 52870U 22062AS  23263.85293543 -.00002518  00000-0 -14019-3 0  9995,2 52870  53.2162 108.1352 0001154  87.9931 272.1193 15.08828599 69938,6917.915,95.438,540.579,538.982,0.0
52870.0,STARLINK-4195,PAYLOAD,2023-09-20 23:39:00,15.08828516,0.0001128,53.2162,107.5408,88.8527,271.2594,-6.5337e-05,-1.327e-05,0.0,0 STARLINK-4195,1 52870U 22062AS  23263.98541829 -.00001327  00000-0 -65337-4 0  9999,2 52870  53.2162 107.5408 0001128  88.8527 271.2594 15.08828516 69951,6917.915,95.438,540.561,539.0,0.0
52870.0,STARLINK-4195,PAYLOAD,2023-09-21 18:43:37,15.08841187,0.0001098,53.2163,103.9725,83.6186,276.4931,0.00012222,1.658e-05,0.0,0 STARLINK-4195,1 52870U 22062AS  23264.78029596  .00001658  00000-0  12222-3 0  9999,2 52870  53.2163 103.9725 0001098  83.6186 276.4931 15.08841187 70564,6917.877,95.437,540.501,538.982,0.0
52870.0,STARLINK-4195,PAYLOAD,2023-09-22 13:48:15,15.08848829,0.0001166,53.2165,100.4046,82.8788,277.2337,0.00042215,6.439e-05,0.0,0 STARLINK-4195,1 52870U 22062AS  23265.57517674  .00006439  00000-0  42215-3 0  9993,2 52870  53.2165 100.4046 0001166  82.8788 277.2337 15.08848829 70197,6917.853,95.437,540.525,538.912,0.0
52870.0,STARLINK-4195,PAYLOAD,2023-09-22 20:09:47,15.0886035,0.0001138,53.2167,99.2152,82.7197,277.3924,0.00059112,9.137e-05,0.0,0 STARLINK-4195,1 52870U 22062AS  23265.84013222  .00009137  00000-0  59112-3 0  9995,2 52870  53.2167  99.2152 0001138  82.7197 277.3924 15.08860350 70235,6917.818,95.436,540.47,538.896,0.0
52870.0,STARLINK-4195,PAYLOAD,2023-09-23 05:42:06,15.0885231,0.0001188,53.2161,97.4318,87.9366,272.1762,0.00024032,3.54e-05,0.0,0 STARLINK-4195,1 52870U 22062AS  23266.23757136  .00003540  00000-0  24032-3 0  9993,2 52870  53.2161  97.4318 0001188  87.9366 272.1762 15.08852310 70783,6917.843,95.437,540.53,538.886,0.0
52870.0,STARLINK-4195,PAYLOAD,2023-09-23 18:25:11,15.08841787,0.0001538,53.2175,95.053,85.7322,274.3846,-1.7212e-05,-5.62e-06,0.0,0 STARLINK-4195,1 52870U 22062AS  23266.76749521 -.00000562  00000-0 -17212-4 0  9996,2 52870  53.2175  95.0530 0001538  85.7322 274.3846 15.08841787 70867,6917.875,95.437,540.804,538.676,0.0
52870.0,STARLINK-4195,PAYLOAD,2023-09-24 11:54:25,15.08843681,0.0001376,53.217,91.7821,89.5442,270.5708,4.7428e-05,4.67e-06,0.0,0 STARLINK-4195,1 52870U 22062AS  23267.49613344  .00000467  00000-0  47428-4 0  9994,2 52870  53.2170  91.7821 0001376  89.5442 270.5708 15.08843681 70481,6917.869,95.437,540.686,538.782,0.0
52870.0,STARLINK-4195,PAYLOAD,2023-09-24 19:51:21,15.08847235,0.0001345,53.2171,90.295,88.5103,271.6043,0.00016248,2.299e-05,0.0,0 STARLINK-4195,1 52870U 22062AS  23267.82733214  .00002299  00000-0  16248-3 0  9990,2 52870  53.2171  90.2950 0001345  88.5103 271.6043 15.08847235 70537,6917.858,95.437,540.654,538.793,0.0
52870.0,STARLINK-4195,PAYLOAD,2023-09-25 11:45:13,15.08840182,0.0001301,53.2164,87.3216,80.6468,279.4671,0.00017105,2.435e-05,0.0,0 STARLINK-4195,1 52870U 22062AS  23268.48973649  .00002435  00000-0  17105-3 0  9996,2 52870  53.2164  87.3216 0001301  80.6468 279.4671 15.08840182 70638,6917.88,95.438,540.645,538.845,0.0
52870.0,STARLINK-4195,PAYLOAD,2023-09-25 19:42:08,15.08845749,0.0001437,53.2169,85.8342,81.4557,278.6598,0.00016889,2.401e-05,0.0,0 STARLINK-4195,1 52870U 22062AS  23268.82093452  .00002401  00000-0  16889-3 0  9990,2 52870  53.2169  85.8342 0001437  81.4557 278.6598 15.08845749 71177,6917.863,95.437,540.722,538.734,0.0
52870.0,STARLINK-4195,PAYLOAD,2023-09-26 17:57:33,15.0883548,0.000154,53.2168,81.6717,74.3225,285.7937,3.9269e-05,3.37e-06,0.0,0 STARLINK-4195,1 52870U 22062AS  23269.74830411  .00000337  00000-0  39269-4 0  9990,2 52870  53.2168  81.6717 0001540  74.3225 285.7937 15.08835480 71317,6917.894,95.438,540.825,538.694,0.0
52870.0,STARLINK-4195,PAYLOAD,2023-09-26 21:08:19,15.08840033,0.0001525,53.2168,81.0766,75.6391,284.4771,0.00010452,1.376e-05,0.0,0 STARLINK-4195,1 52870U 22062AS  23269.88078221  .00001376  00000-0  10452-3 0  9994,2 52870  53.2168  81.0766 0001525  75.6391 284.4771 15.08840033 70845,6917.88,95.438,540.8,538.69,0.0
52870.0,STARLINK-4195,PAYLOAD,2023-09-27 05:05:15,15.08839619,0.0001432,53.2168,79.5893,81.3962,278.7192,0.00012551,1.71e-05,0.0,0 STARLINK-4195,1 52870U 22062AS  23270.21198294  .00001710  00000-0  12551-3 0  9990,2 52870  53.2168  79.5893 0001432  81.3962 278.7192 15.08839619 70899,6917.882,95.438,540.737,538.756,0.0
52870.0,STARLINK-4195,PAYLOAD,2023-09-27 17:48:20,15.08845719,0.0001395,53.2175,77.2088,91.3793,268.7359,0.0001845,2.65e-05,0.0,0 STARLINK-4195,1 52870U 22062AS  23270.74190063  .00002650  00000-0  18450-3 0  9992,2 52870  53.2175  77.2088 0001395  91.3793 268.7359 15.08845719 71465,6917.863,95.437,540.693,538.763,0.0
52870.0,STARLINK-4195,PAYLOAD,2023-09-28 11:17:34,15.08841417,0.0001502,53.2178,73.9354,96.6251,263.4912,0.00015219,2.135e-05,0.0,0 STARLINK-4195,1 52870U 22062AS  23271.47054294  .00002135  00000-0  15219-3 0  9996,2 52870  53.2178  73.9354 0001502  96.6251 263.4912 15.08841417 71574,6917.876,95.437,540.78,538.702,0.0
52870.0,STARLINK-4195,PAYLOAD,2023-09-28 14:28:21,15.08844767,0.0001464,53.2173,73.3408,97.7262,262.3897,0.0001981,2.867e-05,0.0,0 STARLINK-4195,1 52870U 22062AS  23271.60302134  .00002867  00000-0  19810-3 0  9993,2 52870  53.2173  73.3408 0001464  97.7262 262.3897 15.08844767 71104,6917.866,95.437,540.744,538.718,0.0
52870.0,STARLINK-4195,PAYLOAD,2023-09-28 17:39:07,15.08844867,0.0001437,53.2178,72.7463,98.3385,261.777,0.00019883,2.878e-05,0.0,0 STARLINK-4195,1 52870U 22062AS  23271.73550102  .00002878  00000-0  19883-3 0  9999,2 52870  53.2178  72.7463 0001437  98.3385 261.7770 15.08844867 71122,6917.866,95.437,540.725,538.736,0.0
52870.0,STARLINK-4195,PAYLOAD,2023-09-29 14:19:07,15.08852215,0.000148,53.2182,68.8802,104.5271,255.5885,0.00016059,2.27e-05,0.0,0 STARLINK-4195,1 52870U 22062AS  23272.59661313  .00002270  00000-0  16059-3 0  9999,2 52870  53.2182  68.8802 0001480 104.5271 255.5885 15.08852215 71250,6917.843,95.437,540.732,538.684,0.0
52870.0,STARLINK-4195,PAYLOAD,2023-09-29 17:29:53,15.08859157,0.0001418,53.2186,68.2899,93.2637,266.8517,0.00023322,3.428e-05,0.0,0 STARLINK-4195,1 52870U 22062AS  23272.72908992  .00003428  00000-0  23322-3 0  9998,2 52870  53.2186  68.2899 0001418  93.2637 266.8517 15.08859157 71760,6917.822,95.436,540.668,538.706,0.0
52870.0,STARLINK-4195,PAYLOAD,2023-09-29 19:05:16,15.08861539,0.0001403,53.2182,67.9889,94.9015,265.2138,0.00033222,5.006e-05,0.0,0 STARLINK-4195,1 52870U 22062AS  23272.79532895  .00005006  00000-0  33222-3 0  9994,2 52870  53.2182  67.9889 0001403  94.9015 265.2138 15.08861539 71289,6917.815,95.436,540.65,538.709,0.0
52870.0,STARLINK-4195,PAYLOAD,2023-09-30 10:59:08,15.0883964,0.0001917,53.2184,65.0083,149.1041,211.0064,-0.00012667,-2.304e-05,0.0,0 STARLINK-4195,1 52870U 22062AS  23273.45773344 -.00002304  00000-0 -12667-3 0  9994,2 52870  53.2184  65.0083 0001917 149.1041 211.0064 15.08839640 71878,6917.881,95.438,541.073,538.42,0.0
52870.0,STARLINK-4195,PAYLOAD,2023-10-01 02:52:59,15.08844564,0.0001265,53.2187,62.0439,87.4975,272.6162,9.4274e-05,1.213e-05,0.0,0 STARLINK-4195,1 52870U 22062AS  23274.12013505  .00001213  00000-0  94274-4 0  9996,2 52870  53.2187  62.0439 0001265  87.4975 272.6162 15.08844564 71973,6917.866,95.437,540.607,538.856,0.0
52870.0,STARLINK-4195,PAYLOAD,2023-10-01 20:22:13,15.088528,0.0001354,53.2183,58.7731,88.5403,271.5745,0.00040957,6.239e-05,0.0,0 STARLINK-4195,1 52870U 22062AS  23274.84877312  .00006239  00000-0  40957-3 0  9990,2 52870  53.2183  58.7731 0001354  88.5403 271.5745 15.08852800 71598,6917.841,95.437,540.643,538.77,0.0
52870.0,STARLINK-4195,PAYLOAD,2023-10-02 02:43:47,15.08832508,0.0001301,53.218,57.5771,82.6767,277.4373,0.00011407,1.528e-05,0.0,0 STARLINK-4195,1 52870U 22062AS  23275.11373942  .00001528  00000-0  11407-3 0  9995,2 52870  53.2180  57.5771 0001301  82.6767 277.4373 15.08832508 72121,6917.903,95.438,540.668,538.868,0.0
52870.0,STARLINK-4195,PAYLOAD,2023-10-02 17:02:15,15.08832352,0.0001595,53.2186,54.9082,88.3739,271.7435,8.2238e-05,1.021e-05,0.0,0 STARLINK-4195,1 52870U 22062AS  23275.70990675  .00001021  00000-0  82238-4 0  9997,2 52870  53.2186  54.9082 0001595  88.3739 271.7435 15.08832352 71728,6917.904,95.438,540.872,538.665,0.0
